{"type":"FeatureCollection","features":[{"type":"Feature","properties":{"name":"Van Cortlandt Park","gispropnum":"X092","source":"NYC Parks Properties (enfh-gkve)","retrieved":"2026-09-19"},"geometry":{"type":"MultiPolygon","coordinates":[[[[-73.8992796,40.8869832],[-73.899258,40.8868525],[-73.8992087,40.8867381],[-73.8989896,40.8865026],[-73.8968158,40.8860928],[-73.8962377,40.8865363],[-73.8955272,40.886982],[-73.8950554,40.8872334],[-73.8939419,40.8877482],[-73.8928013,40.8882029],[-73.8919334,40.8884873],[-73.8911857,40.8887076],[-73.8899255,40.8890158],[-73.8895518,40.8891335],[-73.8892185,40.889276],[-73.8887854,40.8895411],[-73.8885061,40.8897477],[-73.8882716,40.8899583],[-73.8876529,40.8906296],[-73.8871892,40.891233],[-73.8867346,40.8919598],[-73.8853452,40.8945085],[-73.8849966,40.8952333],[-73.8848261,40.8956851],[-73.8846911,40.8961439],[-73.8846131,40.8965496],[-73.8845832,40.8969589],[-73.8846321,40.8976163],[-73.884783,40.8982245],[-73.8850089,40.8987704],[-73.8851831,40.8990642],[-73.885377,40.8993215],[-73.8857568,40.8996958],[-73.8862635,40.9000436],[-73.8869086,40.9003644],[-73.8873006,40.9005206],[-73.8875593,40.9005895],[-73.88804,40.90063],[-73.8884853,40.9005708],[-73.8908509,40.8997454],[-73.8918945,40.8995467],[-73.8925244,40.8994798],[-73.8935164,40.8994507],[-73.8940294,40.8994838],[-73.8950638,40.8995965],[-73.8954763,40.8996063],[-73.8957864,40.8995685],[-73.8960844,40.8994907],[-73.8963515,40.8993834],[-73.8965902,40.8992441],[-73.8968416,40.8989726],[-73.8969519,40.8987501],[-73.8962542,40.8939494],[-73.8962478,40.8937337],[-73.8962869,40.8934558],[-73.8965922,40.8926281],[-73.8968954,40.892104],[-73.897158,40.8915615],[-73.8974149,40.8908061],[-73.8976009,40.8903844],[-73.8992117,40.8872338],[-73.8992796,40.8869832]]],[[[-73.8862056,40.908301],[-73.8964832,40.9113288],[-73.8964067,40.9087517],[-73.8961938,40.9033179],[-73.896239,40.9029774],[-73.8965323,40.9016453],[-73.8964654,40.9014009],[-73.8963514,40.9011765],[-73.8959812,40.9007169],[-73.8957114,40.900438],[-73.8954525,40.9002017],[-73.8952186,40.9000353],[-73.894886,40.8998725],[-73.8945599,40.8997731],[-73.8940044,40.8996887],[-73.8932875,40.8996417],[-73.8925725,40.8996547],[-73.8917668,40.8997503],[-73.8917339,40.8997131],[-73.8916378,40.8997746],[-73.8912317,40.8998728],[-73.8908371,40.9000078],[-73.8904455,40.9001901],[-73.8901205,40.9003765],[-73.889654,40.9007313],[-73.8892951,40.9011117],[-73.8889368,40.9016672],[-73.8885858,40.9023406],[-73.8881273,40.9033524],[-73.887457,40.9049811],[-73.8867817,40.9069774],[-73.886457,40.9077768],[-73.8862056,40.908301]]],[[[-73.8784983,40.9060032],[-73.8859725,40.9082323],[-73.8863848,40.9072896],[-73.8864779,40.9069086],[-73.8865097,40.9065965],[-73.8864951,40.9061671],[-73.8862208,40.904951],[-73.8861425,40.9043034],[-73.8861446,40.903801],[-73.8862098,40.9034257],[-73.886292,40.9031686],[-73.8864025,40.902928],[-73.8867745,40.9023852],[-73.8872444,40.9018673],[-73.8877854,40.9013941],[-73.8875477,40.9010887],[-73.8872256,40.9007885],[-73.8868562,40.900534],[-73.8861818,40.9001694],[-73.8858136,40.8999357],[-73.8854534,40.8996469],[-73.8851459,40.8993249],[-73.8848964,40.8989753],[-73.8846116,40.8984025],[-73.8844363,40.8978179],[-73.8843593,40.8972337],[-73.8843624,40.896764],[-73.8843988,40.8964421],[-73.8845287,40.8958826],[-73.8846882,40.8954074],[-73.8849977,40.894705],[-73.8858348,40.8931593],[-73.8863699,40.8921008],[-73.8868151,40.8910502],[-73.8870497,40.8903105],[-73.8866361,40.8906435],[-73.8858958,40.8913095],[-73.8826111,40.8945995],[-73.8811696,40.8961143],[-73.8806276,40.8967833],[-73.88081,40.8971153],[-73.8810018,40.8975425],[-73.8810502,40.8978253],[-73.8810318,40.8980771],[-73.8809075,40.8984123],[-73.8807231,40.8986764],[-73.8805176,40.8988711],[-73.8798014,40.8994281],[-73.8795347,40.8997724],[-73.8784983,40.9060032]]],[[[-73.8872934,40.8882257],[-73.8872454,40.8872165],[-73.8871203,40.8862077],[-73.8867691,40.884495],[-73.8866915,40.8843775],[-73.8863603,40.8842289],[-73.886326,40.884267],[-73.8841986,40.8832705],[-73.884024,40.8832366],[-73.8838411,40.8832363],[-73.8828361,40.8834663],[-73.8826355,40.8834644],[-73.882503,40.8834318],[-73.8813097,40.8828584],[-73.8780955,40.8872378],[-73.878271,40.8878062],[-73.8792635,40.8900651],[-73.8802974,40.8919509],[-73.8804387,40.8922515],[-73.8805197,40.8924909],[-73.8805802,40.8928624],[-73.8805733,40.8932307],[-73.880326,40.8950092],[-73.8803609,40.8950525],[-73.8804627,40.895081],[-73.8806928,40.895056],[-73.8809307,40.8949737],[-73.8815871,40.8946865],[-73.8821357,40.8943595],[-73.8827073,40.8939526],[-73.8830957,40.8936301],[-73.8834427,40.893299],[-73.8847494,40.8919261],[-73.885732,40.8909832],[-73.8865302,40.8902804],[-73.8871508,40.8898302],[-73.8872159,40.8894816],[-73.88727,40.8889718],[-73.8872934,40.8882257]]],[[[-73.8680051,40.9029183],[-73.8777884,40.9058044],[-73.8784151,40.9018742],[-73.878391,40.9018677],[-73.8786337,40.900554],[-73.8786198,40.9005902],[-73.8788881,40.8989074],[-73.8791008,40.8979335],[-73.8797775,40.8953678],[-73.8772917,40.8955276],[-73.8770949,40.8960697],[-73.8769536,40.8963498],[-73.87672,40.8967202],[-73.8764327,40.8971128],[-73.8760292,40.8975708],[-73.875692,40.8979133],[-73.875453,40.8981146],[-73.8747972,40.8985765],[-73.8740545,40.8989878],[-73.8731996,40.8993633],[-73.8720017,40.8998422],[-73.8710951,40.900289],[-73.8703446,40.9007348],[-73.8699678,40.9009786],[-73.8692987,40.9014787],[-73.8688614,40.9018744],[-73.8684746,40.9022829],[-73.8684528,40.9024705],[-73.8683117,40.9026966],[-73.8680051,40.9029183]]],[[[-73.887182,40.8851277],[-73.8877448,40.8879353],[-73.8877919,40.8885687],[-73.8877692,40.8890744],[-73.8880297,40.8889587],[-73.8882935,40.8888936],[-73.8891752,40.8888443],[-73.8896869,40.8887718],[-73.8917753,40.8882512],[-73.8923265,40.8880832],[-73.8927769,40.8879037],[-73.8930722,40.8877337],[-73.8933338,40.8875404],[-73.8935508,40.887337],[-73.8938498,40.8869988],[-73.8940999,40.8866604],[-73.8942762,40.8863679],[-73.8944596,40.8859421],[-73.8945457,40.8856659],[-73.8875741,40.8843478],[-73.8873604,40.8846047],[-73.8872699,40.88475],[-73.8871987,40.8849515],[-73.887182,40.8851277]]],[[[-73.8862506,40.9040428],[-73.8862707,40.9044844],[-73.8863216,40.9048697],[-73.8866174,40.9062454],[-73.8866423,40.9065875],[-73.8872678,40.9047928],[-73.8876861,40.9037258],[-73.8876401,40.9037033],[-73.8874192,40.9037823],[-73.8871918,40.9038049],[-73.8869693,40.903775],[-73.8867889,40.9037071],[-73.8866221,40.9035894],[-73.8865103,40.9034388],[-73.8864691,40.9032941],[-73.8864754,40.9030816],[-73.8864041,40.9031917],[-73.8863155,40.9034774],[-73.8862768,40.9036709],[-73.8862506,40.9040428]]],[[[-73.886574,40.9032496],[-73.8865944,40.9033721],[-73.8866703,40.9034947],[-73.8867705,40.9035858],[-73.886916,40.9036642],[-73.8870622,40.9037062],[-73.8872256,40.9037174],[-73.8873868,40.9036946],[-73.8875339,40.9036396],[-73.8877849,40.9034408],[-73.8879566,40.9031723],[-73.8880634,40.9028697],[-73.8881131,40.902468],[-73.8880564,40.9020238],[-73.8878892,40.9015764],[-73.8872851,40.9021404],[-73.8868807,40.9026119],[-73.8866233,40.9030285],[-73.886574,40.9032496]]],[[[-73.8831219,40.8936876],[-73.8827373,40.8940212],[-73.882514,40.8941815],[-73.8817192,40.894689],[-73.8812441,40.8949338],[-73.8808842,40.8950842],[-73.8806203,40.8951669],[-73.8803308,40.8952221],[-73.8803101,40.8956263],[-73.8803256,40.8958542],[-73.8803776,40.8960424],[-73.8805412,40.8964069],[-73.8831219,40.8936876]]],[[[-73.8880368,40.9014529],[-73.8881029,40.9015685],[-73.8882153,40.9018986],[-73.8883447,40.9025342],[-73.8887803,40.9017213],[-73.8891836,40.9010874],[-73.8893877,40.9008463],[-73.8896021,40.9006407],[-73.8901852,40.9001929],[-73.8896971,40.9004143],[-73.8889085,40.9008458],[-73.8886005,40.9010344],[-73.8880368,40.9014529]]],[[[-73.8870006,40.8849378],[-73.8870247,40.8852519],[-73.8872774,40.8866932],[-73.8873494,40.8874544],[-73.8873712,40.8886556],[-73.8872856,40.8896378],[-73.8874466,40.8893495],[-73.8876807,40.8891306],[-73.8877087,40.8886766],[-73.8876698,40.8880082],[-73.8876184,40.8876743],[-73.8870437,40.8850018],[-73.8870417,40.8844965],[-73.8870006,40.8849378]]],[[[-73.8799588,40.8980932],[-73.8800417,40.8982196],[-73.8801832,40.8983089],[-73.8803619,40.8983475],[-73.8805314,40.8983318],[-73.8806809,40.8982693],[-73.8807889,40.8981689],[-73.8808459,40.8980295],[-73.8808625,40.897869],[-73.8808434,40.897673],[-73.8807896,40.8974808],[-73.8805138,40.8969327],[-73.8802376,40.897348],[-73.8800126,40.8977414],[-73.8799588,40.8980932]]],[[[-73.8795712,40.8995531],[-73.8798606,40.8992733],[-73.8804637,40.8988165],[-73.8806294,40.8986586],[-73.8808201,40.898393],[-73.8809449,40.8980565],[-73.8808584,40.8982166],[-73.8807415,40.8983247],[-73.8805659,40.8984013],[-73.8803654,40.8984231],[-73.8801684,40.898387],[-73.8800151,40.8983061],[-73.879919,40.8981994],[-73.8798797,40.8980277],[-73.879842,40.8980115],[-73.8795712,40.8995531]]],[[[-73.89476,40.8862812],[-73.8947997,40.886423],[-73.8949235,40.8865413],[-73.8950939,40.8865987],[-73.8952828,40.8865912],[-73.8955122,40.8865047],[-73.8963063,40.8859951],[-73.8957043,40.8858833],[-73.8952519,40.8859038],[-73.8950484,40.8859624],[-73.8948894,40.8860443],[-73.8947968,40.8861479],[-73.89476,40.8862812]]],[[[-73.8874995,40.8900094],[-73.8872667,40.8901596],[-73.887061,40.8907737],[-73.8864913,40.8920649],[-73.8860663,40.8928966],[-73.8851161,40.8946459],[-73.884871,40.8951761],[-73.8846808,40.8956675],[-73.8845276,40.8962104],[-73.8844664,40.8965776],[-73.8844369,40.8970925],[-73.8844758,40.8975732],[-73.8845355,40.8975565],[-73.8844978,40.8969722],[-73.8845681,40.896336],[-73.8847053,40.8957916],[-73.8848651,40.8953517],[-73.8852177,40.8945824],[-73.8871121,40.8910612],[-73.8873185,40.8905726],[-73.8874995,40.8900094]]],[[[-73.8872476,40.8909852],[-73.8872666,40.8909912],[-73.8878386,40.8903012],[-73.8882195,40.8899077],[-73.8886349,40.8895536],[-73.8890947,40.8892728],[-73.8890718,40.8892557],[-73.8880512,40.8896944],[-73.8875987,40.8899487],[-73.88749,40.890337],[-73.8872476,40.8909852]]],[[[-73.8942981,40.8872996],[-73.8950255,40.8868935],[-73.8957602,40.8864064],[-73.8953185,40.8866443],[-73.89513,40.8866657],[-73.8949929,40.886651],[-73.8948487,40.8865889],[-73.8946377,40.8864185],[-73.8945465,40.8862701],[-73.8945167,40.8861191],[-73.8944078,40.8864507],[-73.8943358,40.886788],[-73.8942981,40.8872996]]],[[[-73.8796637,40.8976693],[-73.8803116,40.8966314],[-73.8799955,40.8956951],[-73.8796637,40.8976693]]],[[[-73.889217,40.9004172],[-73.8884464,40.9006447],[-73.8881026,40.9006893],[-73.8878088,40.9006885],[-73.8876956,40.9010002],[-73.8879291,40.9012804],[-73.8884642,40.900881],[-73.889217,40.9004172]]],[[[-73.8967069,40.9008505],[-73.8965279,40.9008755],[-73.8963576,40.900841],[-73.8961996,40.9007457],[-73.8960731,40.900604],[-73.8960211,40.9004837],[-73.8960256,40.9003792],[-73.8961023,40.9002618],[-73.896226,40.9001976],[-73.8962311,40.9001466],[-73.8953174,40.8999116],[-73.8951408,40.8998889],[-73.8951283,40.8999106],[-73.8953006,40.9000036],[-73.8955409,40.9001851],[-73.896285,40.900923],[-73.8964402,40.9009891],[-73.8966677,40.9010273],[-73.8967069,40.9008505]]],[[[-73.8925873,40.8880309],[-73.8932998,40.8877609],[-73.8941488,40.8873766],[-73.8942009,40.8868347],[-73.8942861,40.8864509],[-73.8941966,40.8866362],[-73.8939704,40.8869836],[-73.8935543,40.8874492],[-73.8933148,40.8876499],[-73.893087,40.8878021],[-73.8925873,40.8880309]]],[[[-73.8969544,40.8996548],[-73.8968932,40.899579],[-73.8968053,40.8995309],[-73.8966889,40.8994998],[-73.8965778,40.8995003],[-73.8963155,40.8996022],[-73.8962476,40.8996702],[-73.8962225,40.8997509],[-73.8962572,40.8998586],[-73.896357,40.8999348],[-73.8968696,40.9001288],[-73.8969544,40.8996548]]],[[[-73.8968281,40.9003134],[-73.8965255,40.9002469],[-73.8963136,40.9002388],[-73.8961553,40.9003157],[-73.8961096,40.9003787],[-73.8960969,40.900443],[-73.8961693,40.9006114],[-73.8962865,40.9007311],[-73.8964401,40.9008028],[-73.8965964,40.9008128],[-73.8967246,40.9007721],[-73.8968281,40.9003134]]],[[[-73.8877036,40.8895094],[-73.8884927,40.8891527],[-73.8891532,40.888929],[-73.8883678,40.8889498],[-73.8879962,40.8890417],[-73.8877587,40.8891668],[-73.8877036,40.8895094]]],[[[-73.8969855,40.8994071],[-73.896537,40.8993959],[-73.8958781,40.8996119],[-73.8955426,40.89966],[-73.8952282,40.8996542],[-73.8952001,40.899672],[-73.8961022,40.8998953],[-73.8961451,40.8998686],[-73.8961317,40.8997714],[-73.8961724,40.8996524],[-73.8963271,40.8995202],[-73.8965069,40.8994532],[-73.8966745,40.8994376],[-73.89683,40.8994728],[-73.8969683,40.8995568],[-73.8969855,40.8994071]]],[[[-73.8945669,40.8860493],[-73.8945892,40.8861853],[-73.8946393,40.8862793],[-73.8947144,40.886102],[-73.8948737,40.8859593],[-73.8950558,40.8858783],[-73.8953592,40.8858178],[-73.8946834,40.8856902],[-73.8945903,40.885891],[-73.8945669,40.8860493]]],[[[-73.8969929,40.899172],[-73.8969724,40.8989033],[-73.8968036,40.8991434],[-73.8965999,40.8992969],[-73.8966221,40.8993439],[-73.8969878,40.899352],[-73.8969929,40.899172]]],[[[-73.8966573,40.9010747],[-73.8964121,40.9010419],[-73.8963636,40.9010634],[-73.8965686,40.9014795],[-73.8966573,40.9010747]]],[[[-73.8873639,40.8896986],[-73.8876095,40.8895594],[-73.8876678,40.8892345],[-73.8874802,40.889445],[-73.8873639,40.8896986]]],[[[-73.8995319,40.8866048],[-73.8991701,40.8865366],[-73.8992795,40.8866701],[-73.8993854,40.8868915],[-73.8995319,40.8866048]]],[[[-73.8871696,40.8847079],[-73.8874506,40.8843798],[-73.8871741,40.8844374],[-73.8871696,40.8847079]]],[[[-73.8868035,40.8844476],[-73.886911,40.8849219],[-73.8869558,40.8844554],[-73.8868035,40.8844476]]]]}}]}
